{"type": "FeatureCollection", "features": [ {"type": "Feature", "properties": {"norad_id": 29930, "name": "FENGYUN 1C DEB", "group": "fengyun-1c-debris", "lat": 40.87752229205222, "lon": 69.76768824986156, "alt_km": 878.0954960378531, "timestamp": "2025-12-25T07:41:09.995511+00:00", "meta": {"OBJECT_NAME": "FENGYUN 1C DEB", "OBJECT_ID": "1999-025JC", "EPOCH": "2025-12-24T16:06:21.545280", "MEAN_MOTION": 14.20831232, "ECCENTRICITY": 0.01642377, "INCLINATION": 99.0438, "RA_OF_ASC_NODE": 241.1796, "ARG_OF_PERICENTER": 19.615, "MEAN_ANOMALY": 38.5131, "EPHEMERIS_TYPE": 0, "CLASSIFICATION_TYPE": "U", "NORAD_CAT_ID": 29930, "ELEMENT_SET_NO": 999, "REV_AT_EPOCH": 98060, "BSTAR": 0.00025455268, "MEAN_MOTION_DOT": 5.83e-06, "MEAN_MOTION_DDOT": 0}, "tle": {"line1": "1 29930U 99025JC  25358.67108270  .00000583  00000+0  25455-3 0  9991", "line2": "2 29930  99.0438 241.1796 0164237  19.6150  38.5131 14.20831232980603"}}, "geometry": {"type": "Point", "coordinates": [69.76768824986156, 40.87752229205222]}}, {"type": "Feature", "properties": {"norad_id": 29931, "name": "FENGYUN 1C DEB", "group": "fengyun-1c-debris", "lat": 80.66179773639303, "lon": -74.1731608113969, "alt_km": 853.187833807925, "timestamp": "2025-12-25T07:41:09.995521+00:00", "meta": {"OBJECT_NAME": "FENGYUN 1C DEB", "OBJECT_ID": "1999-025JD", "EPOCH": "2025-12-24T20:07:24.244320", "MEAN_MOTION": 14.0390478, "ECCENTRICITY": 0.00324389, "INCLINATION": 98.8589, "RA_OF_ASC_NODE": 33.8403, "ARG_OF_PERICENTER": 60.8382, "MEAN_ANOMALY": 118.3044, "EPHEMERIS_TYPE": 0, "CLASSIFICATION_TYPE": "U", "NORAD_CAT_ID": 29931, "ELEMENT_SET_NO": 999, "REV_AT_EPOCH": 96982, "BSTAR": 0.00018317887, "MEAN_MOTION_DOT": 2.48e-06, "MEAN_MOTION_DDOT": 0}, "tle": {"line1": "1 29931U 99025JD  25358.83847505  .00000248  00000+0  18318-3 0  9999", "line2": "2 29931  98.8589  33.8403 0032438  60.8382 118.3044 14.03904780969822"}}, "geometry": {"type": "Point", "coordinates": [-74.1731608113969, 80.66179773639303]}}, {"type": "Feature", "properties": {"norad_id": 29932, "name": "FENGYUN 1C DEB", "group": "fengyun-1c-debris", "lat": 46.41606363591066, "lon": 0.44788236701367096, "alt_km": 805.2369704655284, "timestamp": "2025-12-25T07:41:09.995531+00:00", "meta": {"OBJECT_NAME": "FENGYUN 1C DEB", "OBJECT_ID": "1999-025JE", "EPOCH": "2025-12-24T11:51:16.194816", "MEAN_MOTION": 14.16776397, "ECCENTRICITY": 0.00381812, "INCLINATION": 98.6339, "RA_OF_ASC_NODE": 8.832, "ARG_OF_PERICENTER": 37.3257, "MEAN_ANOMALY": 117.5952, "EPHEMERIS_TYPE": 0, "CLASSIFICATION_TYPE": "U", "NORAD_CAT_ID": 29932, "ELEMENT_SET_NO": 999, "REV_AT_EPOCH": 97750, "BSTAR": 0.00027186686, "MEAN_MOTION_DOT": 5.05e-06, "MEAN_MOTION_DDOT": 0}, "tle": {"line1": "1 29932U 99025JE  25358.49393744  .00000505  00000+0  27187-3 0  9993", "line2": "2 29932  98.6339   8.8320 0038181  37.3257 117.5952 14.16776397977503"}}, "geometry": {"type": "Point", "coordinates": [0.44788236701367096, 46.41606363591066]}}, {"type": "Feature", "properties": {"norad_id": 29933, "name": "FENGYUN 1C DEB", "group": "fengyun-1c-debris", "lat": -16.586790683115954, "lon": -79.28998589416199, "alt_km": 677.6443016746871, "timestamp": "2025-12-25T07:41:09.995541+00:00", "meta": {"OBJECT_NAME": "FENGYUN 1C DEB", "OBJECT_ID": "1999-025JF", "EPOCH": "2025-12-24T13:19:50.522304", "MEAN_MOTION": 14.66261636, "ECCENTRICITY": 0.00056166, "INCLINATION": 98.7482, "RA_OF_ASC_NODE": 102.5243, "ARG_OF_PERICENTER": 286.9018, "MEAN_ANOMALY": 195.089, "EPHEMERIS_TYPE": 0, "CLASSIFICATION_TYPE": "U", "NORAD_CAT_ID": 29933, "ELEMENT_SET_NO": 999, "REV_AT_EPOCH": 98678, "BSTAR": 0.0034143466, "MEAN_MOTION_DOT": 0.00018817, "MEAN_MOTION_DDOT": 0}, "tle": {"line1": "1 29933U 99025JF  25358.55544586  .00018817  00000+0  34143-2 0  9997", "line2": "2 29933  98.7482 102.5243 0005616 286.9018 195.0890 14.66261636986786"}}, "geometry": {"type": "Point", "coordinates": [-79.28998589416199, -16.586790683115954]}}, {"type": "Feature", "properties": {"norad_id": 29934, "name": "FENGYUN 1C DEB", "group": "fengyun-1c-debris", "lat": 25.240576371324806, "lon": 42.956221009407095, "alt_km": 750.5407593152277, "timestamp": "2025-12-25T07:41:09.995551+00:00", "meta": {"OBJECT_NAME": "FENGYUN 1C DEB", "OBJECT_ID": "1999-025JG", "EPOCH": "2025-12-24T16:48:12.826080", "MEAN_MOTION": 14.63893375, "ECCENTRICITY": 0.01011105, "INCLINATION": 98.9023, "RA_OF_ASC_NODE": 46.5242, "ARG_OF_PERICENTER": 215.3192, "MEAN_ANOMALY": 144.1282, "EPHEMERIS_TYPE": 0, "CLASSIFICATION_TYPE": "U", "NORAD_CAT_ID": 29934, "ELEMENT_SET_NO": 999, "REV_AT_EPOCH": 99947, "BSTAR": 0.00086339602, "MEAN_MOTION_DOT": 4.803e-05, "MEAN_MOTION_DDOT": 0}, "tle": {"line1": "1 29934U 99025JG  25358.70014845  .00004803  00000+0  86340-3 0  9992", "line2": "2 29934  98.9023  46.5242 0101110 215.3192 144.1282 14.63893375999479"}}, "geometry": {"type": "Point", "coordinates": [42.956221009407095, 25.240576371324806]}}, {"type": "Feature", "properties": {"norad_id": 29935, "name": "FENGYUN 1C DEB", "group": "fengyun-1c-debris", "lat": 63.59138943467614, "lon": 43.421001817902244, "alt_km": 883.2938092893955, "timestamp": "2025-12-25T07:41:09.995562+00:00", "meta": {"OBJECT_NAME": "FENGYUN 1C DEB", "OBJECT_ID": "1999-025JH", "EPOCH": "2025-12-24T16:39:57.693600", "MEAN_MOTION": 14.14244857, "ECCENTRICITY": 0.0150792, "INCLINATION": 98.4598, "RA_OF_ASC_NODE": 60.2676, "ARG_OF_PERICENTER": 181.7119, "MEAN_ANOMALY": 300.2865, "EPHEMERIS_TYPE": 0, "CLASSIFICATION_TYPE": "U", "NORAD_CAT_ID": 29935, "ELEMENT_SET_NO": 999, "REV_AT_EPOCH": 97711, "BSTAR": 0.00012521006, "MEAN_MOTION_DOT": 2.26e-06, "MEAN_MOTION_DDOT": 0}, "tle": {"line1": "1 29935U 99025JH  25358.69441775  .00000226  00000+0  12521-3 0  9992", "line2": "2 29935  98.4598  60.2676 0150792 181.7119 300.2865 14.14244857977111"}}, "geometry": {"type": "Point", "coordinates": [43.421001817902244, 63.59138943467614]}}, {"type": "Feature", "properties": {"norad_id": 29936, "name": "FENGYUN 1C DEB", "group": "fengyun-1c-debris", "lat": -20.8938258120864, "lon": 116.07694880498417, "alt_km": 860.1035293940386, "timestamp": "2025-12-25T07:41:09.995572+00:00", "meta": {"OBJECT_NAME": "FENGYUN 1C DEB", "OBJECT_ID": "1999-025JJ", "EPOCH": "2025-12-24T20:04:30.116352", "MEAN_MOTION": 14.35326091, "ECCENTRICITY": 0.0114564, "INCLINATION": 98.6563, "RA_OF_ASC_NODE": 112.2578, "ARG_OF_PERICENTER": 151.3332, "MEAN_ANOMALY": 209.4216, "EPHEMERIS_TYPE": 0, "CLASSIFICATION_TYPE": "U", "NORAD_CAT_ID": 29936, "ELEMENT_SET_NO": 999, "REV_AT_EPOCH": 99104, "BSTAR": 0.00017280698, "MEAN_MOTION_DOT": 4.87e-06, "MEAN_MOTION_DDOT": 0}, "tle": {"line1": "1 29936U 99025JJ  25358.83645968  .00000487  00000+0  17281-3 0  9996", "line2": "2 29936  98.6563 112.2578 0114564 151.3332 209.4216 14.35326091991044"}}, "geometry": {"type": "Point", "coordinates": [116.07694880498417, -20.8938258120864]}}, {"type": "Feature", "properties": {"norad_id": 29937, "name": "FENGYUN 1C DEB", "group": "fengyun-1c-debris", "lat": 59.24124639777628, "lon": -144.96317571011218, "alt_km": 888.6892727296836, "timestamp": "2025-12-25T07:41:09.995582+00:00", "meta": {"OBJECT_NAME": "FENGYUN 1C DEB", "OBJECT_ID": "1999-025JK", "EPOCH": "2025-12-24T21:26:00.054816", "MEAN_MOTION": 14.04360171, "ECCENTRICITY": 0.0031765, "INCLINATION": 98.8015, "RA_OF_ASC_NODE": 19.5334, "ARG_OF_PERICENTER": 347.5818, "MEAN_ANOMALY": 133.1002, "EPHEMERIS_TYPE": 0, "CLASSIFICATION_TYPE": "U", "NORAD_CAT_ID": 29937, "ELEMENT_SET_NO": 999, "REV_AT_EPOCH": 97106, "BSTAR": 8.13746e-06, "MEAN_MOTION_DOT": -3e-07, "MEAN_MOTION_DDOT": 0}, "tle": {"line1": "1 29937U 99025JK  25358.89305619 -.00000030  00000+0  81375-5 0  9991", "line2": "2 29937  98.8015  19.5334 0031765 347.5818 133.1002 14.04360171971066"}}, "geometry": {"type": "Point", "coordinates": [-144.96317571011218, 59.24124639777628]}}, {"type": "Feature", "properties": {"norad_id": 29938, "name": "FENGYUN 1C DEB", "group": "fengyun-1c-debris", "lat": -5.01944770999243, "lon": 168.22930928429838, "alt_km": 871.3069215216856, "timestamp": "2025-12-25T07:41:09.995591+00:00", "meta": {"OBJECT_NAME": "FENGYUN 1C DEB", "OBJECT_ID": "1999-025JL", "EPOCH": "2025-12-24T20:52:28.142688", "MEAN_MOTION": 14.07464581, "ECCENTRICITY": 0.00325911, "INCLINATION": 98.8032, "RA_OF_ASC_NODE": 348.5703, "ARG_OF_PERICENTER": 275.7386, "MEAN_ANOMALY": 148.3172, "EPHEMERIS_TYPE": 0, "CLASSIFICATION_TYPE": "U", "NORAD_CAT_ID": 29938, "ELEMENT_SET_NO": 999, "REV_AT_EPOCH": 97227, "BSTAR": 0.00010922502, "MEAN_MOTION_DOT": 1.41e-06, "MEAN_MOTION_DDOT": 0}, "tle": {"line1": "1 29938U 99025JL  25358.86977017  .00000141  00000+0  10923-3 0  9997", "line2": "2 29938  98.8032 348.5703 0032591 275.7386 148.3172 14.07464581972274"}}, "geometry": {"type": "Point", "coordinates": [168.22930928429838, -5.01944770999243]}}, {"type": "Feature", "properties": {"norad_id": 29939, "name": "FENGYUN 1C DEB", "group": "fengyun-1c-debris", "lat": 23.873675018945796, "lon": -5.342309465342257, "alt_km": 841.9957236663085, "timestamp": "2025-12-25T07:41:09.995616+00:00", "meta": {"OBJECT_NAME": "FENGYUN 1C DEB", "OBJECT_ID": "1999-025JM", "EPOCH": "2025-12-24T21:43:15.761856", "MEAN_MOTION": 14.12087264, "ECCENTRICITY": 0.00672827, "INCLINATION": 98.7102, "RA_OF_ASC_NODE": 358.1448, "ARG_OF_PERICENTER": 104.4277, "MEAN_ANOMALY": 331.0505, "EPHEMERIS_TYPE": 0, "CLASSIFICATION_TYPE": "U", "NORAD_CAT_ID": 29939, "ELEMENT_SET_NO": 999, "REV_AT_EPOCH": 97632, "BSTAR": 3.8774996e-05, "MEAN_MOTION_DOT": 3.1e-07, "MEAN_MOTION_DDOT": 0}, "tle": {"line1": "1 29939U 99025JM  25358.90504354  .00000031  00000+0  38775-4 0  9997", "line2": "2 29939  98.7102 358.1448 0067282 104.4277 331.0505 14.12087264976323"}}, "geometry": {"type": "Point", "coordinates": [-5.342309465342257, 23.873675018945796]}}]}